NORAD_CAT_ID,OBJECT_NAME,OBJECT_TYPE,EPOCH,MEAN_MOTION,ECCENTRICITY,INCLINATION,RA_OF_ASC_NODE,ARG_OF_PERICENTER,MEAN_ANOMALY,BSTAR,MEAN_MOTION_DOT,MEAN_MOTION_DDOT,TLE_LINE0,TLE_LINE1,TLE_LINE2,SEMIMAJOR_AXIS,PERIOD,APOGEE,PERIGEE,DECAYED
51787.0,STARLINK-3619,PAYLOAD,2022-07-24 00:00:00,15.08838099,0.0002103,53.2154,175.8749,46.611,300.0871,-0.0005251,-8.635e-05,0.0,0 STARLINK-3619,1 51787U 22017V   22205.00001157 -.00008635  00000-0 -52510-3 0  9995,2 51787  53.2154 175.8749 0002103  46.6110 300.0871 15.08838099 23932,6917.886,95.438,541.206,538.2959999999998,0.0
51787.0,STARLINK-3619,PAYLOAD,2022-07-24 14:00:01,15.08848107,0.0002194,53.2153,173.2566,43.9202,233.0411,-0.0021462,-0.00034292,0.0,0 STARLINK-3619,1 51787U 22017V   22205.58334491 -.00034292  00000-0 -21462-2 0  9997,2 51787  53.2153 173.2566 0002194  43.9202 233.0411 15.08848107  1305,6917.856,95.437,541.238,538.203,0.0
51787.0,STARLINK-3619,PAYLOAD,2022-07-24 22:00:00,15.08834845,0.0002112,53.2155,171.7595,49.2433,239.3067,0.0011347999999999,0.00017816,0.0,0 STARLINK-3619,1 51787U 22017V   22205.91667824  .00017816  00000-0  11348-2 0  9996,2 51787  53.2155 171.7595 0002112  49.2433 239.3067 15.08834845  1307,6917.896,95.438,541.222,538.3,0.0
51787.0,STARLINK-3619,PAYLOAD,2022-07-25 06:00:00,15.088313500000002,0.0002325,53.2155,170.2649,45.0267,255.1226,0.00095103,0.00014877,0.0,0 STARLINK-3619,1 51787U 22017V   22206.25001157  .00014877  00000-0  95103-3 0  9991,2 51787  53.2155 170.2649 0002325  45.0267 255.1226 15.08831350 24122,6917.906999999997,95.438,541.38,538.163,0.0
51787.0,STARLINK-3619,PAYLOAD,2022-07-25 14:00:01,15.08857711,0.0002211999999999,53.2153,168.7674,46.3201,265.4165,-0.0020464,-0.00032726,0.0,0 STARLINK-3619,1 51787U 22017V   22206.58334491 -.00032726  00000-0 -20464-2 0  9999,2 51787  53.2153 168.7674 0002212  46.3201 265.4165 15.08857711  1307,6917.826,95.436,541.221,538.161,0.0
51787.0,STARLINK-3619,PAYLOAD,2022-07-25 22:00:00,15.08850097,0.0002119,53.2156,167.2705,51.1187,272.2175,0.00048528,7.446e-05,0.0,0 STARLINK-3619,1 51787U 22017V   22206.91667824  .00007446  00000-0  48528-3 0  9996,2 51787  53.2156 167.2705 0002119  51.1187 272.2175 15.08850097  1309,6917.85,95.437,541.18,538.249,0.0
51787.0,STARLINK-3619,PAYLOAD,2022-07-26 06:00:00,15.08840671,0.0002286,53.2155,165.7759,46.0146,288.9361,-0.0014678,-0.00023574,0.0,0 STARLINK-3619,1 51787U 22017V   22207.25001157 -.00023574  00000-0 -14678-2 0  9995,2 51787  53.2155 165.7759 0002286  46.0146 288.9361 15.08840671 24272,6917.878000000002,95.438,541.325,538.1619999999998,0.0
51787.0,STARLINK-3619,PAYLOAD,2022-07-26 14:00:01,15.08836464,0.0002141,53.2152,164.2783,47.131,299.4057,-0.0016742,-0.00026833,0.0,0 STARLINK-3619,1 51787U 22017V   22207.58334491 -.00026833  00000-0 -16742-2 0  9996,2 51787  53.2152 164.2783 0002141  47.1310 299.4057 15.08836464  1308,6917.891,95.438,541.237,538.275,0.0
51787.0,STARLINK-3619,PAYLOAD,2022-07-26 22:00:00,15.08834908,0.0002085,53.2155,162.7816,51.7221,306.3901,0.00015564,2.189e-05,0.0,0 STARLINK-3619,1 51787U 22017V   22207.91667824  .00002189  00000-0  15564-3 0  9990,2 51787  53.2155 162.7816 0002085  51.7221 306.3901 15.08834908  1307,6917.896,95.438,541.203,538.319,0.0
51787.0,STARLINK-3619,PAYLOAD,2022-07-27 14:00:01,15.08842739,0.0002185,53.2152,159.7893,49.9244,331.3629,-0.0012301999999999,-0.00019816,0.0,0 STARLINK-3619,1 51787U 22017V   22208.58334491 -.00019816  00000-0 -12302-2 0  9998,2 51787  53.2152 159.7893 0002185  49.9244 331.3629 15.08842739  1306,6917.871999999999,95.437,541.249,538.225,0.0
51787.0,STARLINK-3619,PAYLOAD,2022-07-27 22:00:00,15.08849594,0.0002171999999999,53.2154,158.2928,53.68,339.1951,-0.00020838,-3.604e-05,0.0,0 STARLINK-3619,1 51787U 22017V   22208.91667824 -.00003604  00000-0 -20838-3 0  9996,2 51787  53.2154 158.2928 0002172  53.6800 339.1951 15.08849594  1307,6917.851,95.437,541.219,538.214,0.0
51787.0,STARLINK-3619,PAYLOAD,2022-07-28 00:00:00,15.08858221,0.0002225,53.2154,157.9192,52.356,73.4176,-0.0017719,-0.00028392,0.0,0 STARLINK-3619,1 51787U 22017V   22209.00001157 -.00028392  00000-0 -17719-2 0  9992,2 51787  53.2154 157.9192 0002225  52.3560  73.4176 15.08858221 24538,6917.825,95.436,541.229,538.15,0.0
51787.0,STARLINK-3619,PAYLOAD,2022-07-28 14:00:01,15.0885306,0.0002233,53.2154,155.3002,51.5884,4.4898,-0.00094325,-0.00015275,0.0,0 STARLINK-3619,1 51787U 22017V   22209.58334491 -.00015275  00000-0 -94325-3 0  9990,2 51787  53.2154 155.3002 0002233  51.5884   4.4898 15.08853060  1300,6917.84,95.437,541.25,538.161,0.0
51787.0,STARLINK-3619,PAYLOAD,2022-07-28 22:00:00,15.08863016,0.0002210999999999,53.2156,153.8038,53.7872,13.8918,-0.0031677,-0.00050383,0.0,0 STARLINK-3619,1 51787U 22017V   22209.91667824 -.00050383  00000-0 -31677-2 0  9995,2 51787  53.2156 153.8038 0002211  53.7872  13.8918 15.08863016  1300,6917.81,95.436,541.205,538.146,0.0
51787.0,STARLINK-3619,PAYLOAD,2022-07-29 00:00:00,15.08851183,0.0002244,53.216,153.4304,52.3802,108.2051,-0.0028349,-0.00045139,0.0,0 STARLINK-3619,1 51787U 22017V   22210.00001157 -.00045139  00000-0 -28349-2 0  9993,2 51787  53.2160 153.4304 0002244  52.3802 108.2051 15.08851183 24686,6917.846,95.437,541.264,538.159,0.0
51787.0,STARLINK-3619,PAYLOAD,2022-07-29 14:00:01,15.08830146,0.0002234999999999,53.216,150.8111,51.4455,39.4145,-0.00019664,-3.416e-05,0.0,0 STARLINK-3619,1 51787U 22017V   22210.58334491 -.00003416  00000-0 -19664-3 0  9999,2 51787  53.2160 150.8111 0002235  51.4455  39.4145 15.08830146  1306,6917.911,95.438,541.322,538.229,0.0
51787.0,STARLINK-3619,PAYLOAD,2022-07-29 22:00:00,15.08848483,0.0002299,53.2161,149.3149,54.0483,48.3889,-0.00095032,-0.00015385,0.0,0 STARLINK-3619,1 51787U 22017V   22210.91667824 -.00015385  00000-0 -95032-3 0  9996,2 51787  53.2161 149.3149 0002299  54.0483  48.3889 15.08848483  1308,6917.854,95.437,541.31,538.129,0.0
51787.0,STARLINK-3619,PAYLOAD,2022-07-30 14:00:01,15.08838986,0.0002327,53.2165,146.3222,53.2081,72.4237,0.00030909,4.634e-05,0.0,0 STARLINK-3619,1 51787U 22017V   22211.58334491  .00004634  00000-0  30909-3 0  9996,2 51787  53.2165 146.3222 0002327  53.2081  72.4237 15.08838986 24923,6917.8830000000025,95.438,541.3580000000002,538.139,0.0
51787.0,STARLINK-3619,PAYLOAD,2022-07-30 22:00:00,15.08865045,0.0002387,53.2167,144.8259,55.1538,82.0697,-0.0015390999999999,-0.00024717,0.0,0 STARLINK-3619,1 51787U 22017V   22211.91667824 -.00024717  00000-0 -15391-2 0  9995,2 51787  53.2167 144.8259 0002387  55.1538  82.0697 15.08865045  1302,6917.804,95.436,541.32,538.018,0.0
51787.0,STARLINK-3619,PAYLOAD,2022-07-31 14:00:01,15.08820855,0.0002299,53.2169,141.8331,53.5972,106.8371,0.00079651,0.00012405,0.0,0 STARLINK-3619,1 51787U 22017V   22212.58334491  .00012405  00000-0  79651-3 0  9999,2 51787  53.2169 141.8331 0002299  53.5972 106.8371 15.08820855  1302,6917.939,95.439,541.394,538.2130000000002,0.0
51787.0,STARLINK-3619,PAYLOAD,2022-07-31 22:00:00,15.08849314,0.0002367,53.217,140.3371,55.5518,116.4569,-0.0013718,-0.00022061,0.0,0 STARLINK-3619,1 51787U 22017V   22212.91667824 -.00022061  00000-0 -13718-2 0  9997,2 51787  53.2170 140.3371 0002367  55.5518 116.4569 15.08849314  1303,6917.852,95.437,541.354,538.0790000000002,0.0
51787.0,STARLINK-3619,PAYLOAD,2022-08-01 14:00:01,15.0883175,0.0002325,53.2168,137.344,56.0299,139.1771,0.0014007,0.0002207,0.0,0 STARLINK-3619,1 51787U 22017V   22213.58334491  .00022070  00000-0  14007-2 0  9992,2 51787  53.2168 137.3440 0002325  56.0299 139.1771 15.08831750  1301,6917.906,95.438,541.379,538.1619999999998,0.0
51787.0,STARLINK-3619,PAYLOAD,2022-08-01 22:00:00,15.08870498,0.0002364,53.2169,135.8483,57.3572,149.4386,-0.0026653,-0.00042494,0.0,0 STARLINK-3619,1 51787U 22017V   22213.91667824 -.00042494  00000-0 -26653-2 0  9992,2 51787  53.2169 135.8483 0002364  57.3572 149.4386 15.08870498  1301,6917.7869999999975,95.436,541.288,538.0169999999998,0.0
51787.0,STARLINK-3619,PAYLOAD,2022-08-02 06:00:02,15.08815139,0.0002427,53.2165,134.3529,52.2738,166.2063,0.0017515999999999,0.0002768,0.0,0 STARLINK-3619,1 51787U 22017V   22214.25002315  .00027680  00000-0  17516-2 0  9994,2 51787  53.2165 134.3529 0002427  52.2738 166.2063 15.08815139 25339,6917.956,95.439,541.5,538.1419999999998,0.0
51787.0,STARLINK-3619,PAYLOAD,2022-08-02 14:00:01,15.08812445,0.0002244,53.2164,132.8549,57.2268,172.7746,0.0018245,0.00028847,0.0,0 STARLINK-3619,1 51787U 22017V   22214.58334491  .00028847  00000-0  18245-2 0  9999,2 51787  53.2164 132.8549 0002244  57.2268 172.7746 15.08812445  1301,6917.965,95.439,541.382,538.2769999999998,0.0
51787.0,STARLINK-3619,PAYLOAD,2022-08-03 06:00:00,15.08820516,0.0002414,53.2158,129.8639,54.6797,198.4903,0.0022631,0.00035895,0.0,0 STARLINK-3619,1 51787U 22017V   22215.25001157  .00035895  00000-0  22631-2 0  9999,2 51787  53.2158 129.8639 0002414  54.6797 198.4903 15.08820516 25480,6917.94,95.439,541.475,538.135,0.0
51787.0,STARLINK-3619,PAYLOAD,2022-08-03 14:00:01,15.08821867,0.0002279999999999,53.2157,128.3657,60.3099,204.4574,0.0023479,0.00037259,0.0,0 STARLINK-3619,1 51787U 22017V   22215.58334491  .00037259  00000-0  23479-2 0  9992,2 51787  53.2157 128.3657 0002280  60.3099 204.4574 15.08821867  1300,6917.936,95.439,541.378,538.224,0.0
51787.0,STARLINK-3619,PAYLOAD,2022-08-03 22:00:01,15.08860172,0.0002354,53.2157,126.8702,60.5808,215.8355,-0.0015104,-0.0002426,0.0,0 STARLINK-3619,1 51787U 22017V   22215.91668981 -.00024260  00000-0 -15104-2 0  9999,2 51787  53.2157 126.8702 0002354  60.5808 215.8355 15.08860172  1301,6917.819,95.436,541.312,538.055,0.0
51787.0,STARLINK-3619,PAYLOAD,2022-08-04 14:00:01,15.08803651,0.0002234999999999,53.2152,123.8764,61.3573,238.2122,0.0027203,0.00043229,0.0,0 STARLINK-3619,1 51787U 22017V   22216.58334491  .00043229  00000-0  27203-2 0  9996,2 51787  53.2152 123.8764 0002235  61.3573 238.2122 15.08803651  1307,6917.991,95.44,541.403,538.31,0.0
